[{"OBJECT_NAME":"IRIDIUM 154","OBJECT_ID":"2018-061F","EPOCH":"2026-03-09T19:28:30.566496","MEAN_MOTION":14.34219109,"ECCENTRICITY":0.00022519,"INCLINATION":86.3916,"RA_OF_ASC_NODE":98.3738,"ARG_OF_PERICENTER":97.8524,"MEAN_ANOMALY":262.2928,"EPHEMERIS_TYPE":0,"CLASSIFICATION_TYPE":"U","NORAD_CAT_ID":43574,"ELEMENT_SET_NO":999,"REV_AT_EPOCH":39916,"BSTAR":1.1681552e-5,"MEAN_MOTION_DOT":5.3e-7,"MEAN_MOTION_DDOT":0},{"OBJECT_NAME":"FENGYUN 1C DEB","OBJECT_ID":"1999-025BMK","EPOCH":"2026-03-07T10:09:48.246912","MEAN_MOTION":14.0371093,"ECCENTRICITY":0.0289268,"INCLINATION":99.0605,"RA_OF_ASC_NODE":136.3648,"ARG_OF_PERICENTER":215.3389,"MEAN_ANOMALY":142.8301,"EPHEMERIS_TYPE":0,"CLASSIFICATION_TYPE":"U","NORAD_CAT_ID":31253,"ELEMENT_SET_NO":999,"REV_AT_EPOCH":70186,"BSTAR":0.00035092067,"MEAN_MOTION_DOT":7.52e-6,"MEAN_MOTION_DDOT":0}]
